NORAD_CAT_ID,OBJECT_NAME,OBJECT_TYPE,EPOCH,MEAN_MOTION,ECCENTRICITY,INCLINATION,RA_OF_ASC_NODE,ARG_OF_PERICENTER,MEAN_ANOMALY,BSTAR,MEAN_MOTION_DOT,MEAN_MOTION_DDOT,TLE_LINE0,TLE_LINE1,TLE_LINE2,SEMIMAJOR_AXIS,PERIOD,APOGEE,PERIGEE,DECAYED
53846.0,STARLINK-4746,PAYLOAD,2023-04-28 11:45:35,15.08840715,0.0002426,53.2161,310.5168,72.9509,287.1749,0.0018158,0.0002873,0.0,0 STARLINK-4746,1 53846U 22114AE  23118.48999733  .00028730  00000-0  18158-2 0  9998,2 53846  53.2161 310.5168 0002426  72.9509 287.1749 15.08840715 34493,6917.878,95.438,541.421,538.065,0.0
53846.0,STARLINK-4746,PAYLOAD,2023-04-28 19:42:31,15.08846665,8.25e-05,53.2149,309.0214,90.0387,270.07,8.3919e-05,1.048e-05,0.0,0 STARLINK-4746,1 53846U 22114AE  23118.82119432  .00001048  00000-0  83919-4 0  9998,2 53846  53.2149 309.0214 0000825  90.0387 270.0700 15.08846665 34544,6917.86,95.437,540.296,539.154,0.0
53846.0,STARLINK-4746,PAYLOAD,2023-04-29 13:11:45,15.08840863,9.72e-05,53.2167,305.7526,99.9879,260.1223,0.00011041,1.47e-05,0.0,0 STARLINK-4746,1 53846U 22114AE  23119.54983609  .00001470  00000-0  11041-3 0  9998,2 53846  53.2167 305.7526 0000972  99.9879 260.1223 15.08840863 35196,6917.878,95.438,540.415,539.07,0.0
53846.0,STARLINK-4746,PAYLOAD,2023-04-29 21:08:41,15.08848738,9.37e-05,53.2163,304.2655,97.9829,262.1269,9.9774e-05,1.301e-05,0.0,0 STARLINK-4746,1 53846U 22114AE  23119.88103242  .00001301  00000-0  99774-4 0  9995,2 53846  53.2163 304.2655 0000937  97.9829 262.1269 15.08848738 34700,6917.854,95.437,540.367,539.07,0.0
53846.0,STARLINK-4746,PAYLOAD,2023-04-30 19:24:05,15.08836508,9.76e-05,53.2164,300.1033,94.57,265.5404,0.00011007,1.464e-05,0.0,0 STARLINK-4746,1 53846U 22114AE  23120.80839976  .00001464  00000-0  11007-3 0  9991,2 53846  53.2164 300.1033 0000976  94.5700 265.5404 15.08836508 34845,6917.891,95.438,540.431,539.081,0.0
53846.0,STARLINK-4746,PAYLOAD,2023-05-01 00:10:14,15.08846607,8.63e-05,53.216,299.2103,88.9057,271.2034,0.00019041,2.744e-05,0.0,0 STARLINK-4746,1 53846U 22114AE  23121.00711461  .00002744  00000-0  19041-3 0  9990,2 53846  53.2160 299.2103 0000863  88.9057 271.2034 15.08846607 34871,6917.86,95.437,540.322,539.128,0.0
53846.0,STARLINK-4746,PAYLOAD,2023-05-01 16:04:06,15.08836068,8.35e-05,53.2162,296.2381,61.175,298.9325,2.8601e-05,1.67e-06,0.0,0 STARLINK-4746,1 53846U 22114AE  23121.66952120  .00000167  00000-0  28601-4 0  9991,2 53846  53.2162 296.2381 0000835  61.1750 298.9325 15.08836068 34970,6917.892,95.438,540.335,539.18,0.0
53846.0,STARLINK-4746,PAYLOAD,2023-05-01 19:14:52,15.08843453,8.59e-05,53.2165,295.6419,85.3362,274.7728,8.5639e-05,1.076e-05,0.0,0 STARLINK-4746,1 53846U 22114AE  23121.80199722  .00001076  00000-0  85639-4 0  9992,2 53846  53.2165 295.6419 0000859  85.3362 274.7728 15.08843453 35539,6917.87,95.437,540.329,539.141,0.0
53846.0,STARLINK-4746,PAYLOAD,2023-05-01 22:25:38,15.08846308,8.82e-05,53.2162,295.0467,82.2846,277.8246,0.00012394,1.686e-05,0.0,0 STARLINK-4746,1 53846U 22114AE  23121.93447542  .00001686  00000-0  12394-3 0  9996,2 53846  53.2162 295.0467 0000882  82.2846 277.8246 15.08846308 35016,6917.861,95.437,540.336,539.116,0.0
53846.0,STARLINK-4746,PAYLOAD,2023-05-02 11:08:44,15.08840661,8.22e-05,53.2162,292.6688,83.073,277.0355,8.7028e-05,1.098e-05,0.0,0 STARLINK-4746,1 53846U 22114AE  23122.46439911  .00001098  00000-0  87028-4 0  9990,2 53846  53.2162 292.6688 0000822  83.0730 277.0355 15.08840661 35096,6917.878,95.438,540.312,539.175,0.0
53846.0,STARLINK-4746,PAYLOAD,2023-05-02 17:30:16,15.08843755,0.000101,53.2177,291.4805,70.1029,290.0072,0.00011038,1.47e-05,0.0,0 STARLINK-4746,1 53846U 22114AE  23122.72935825  .00001470  00000-0  11038-3 0  9995,2 53846  53.2177 291.4805 0001010  70.1029 290.0072 15.08843755 35670,6917.869,95.437,540.433,539.035,0.0
53846.0,STARLINK-4746,PAYLOAD,2023-05-03 10:59:31,15.0884764,0.0001648,53.2177,288.2083,66.4908,293.6257,-4.8476e-05,-1.06e-05,0.0,0 STARLINK-4746,1 53846U 22114AE  23123.45799823 -.00001060  00000-0 -48476-4 0  9996,2 53846  53.2177 288.2083 0001648  66.4908 293.6257 15.08847640 35786,6917.857,95.437,540.862,538.582,0.0
53846.0,STARLINK-4746,PAYLOAD,2023-05-03 17:21:03,15.08839097,0.0001048,53.2176,287.0198,68.2999,291.8105,4.5158e-05,4.31e-06,0.0,0 STARLINK-4746,1 53846U 22114AE  23123.72296219  .00000431  00000-0  45158-4 0  9990,2 53846  53.2176 287.0198 0001048  68.2999 291.8105 15.08839097 35287,6917.883,95.438,540.473,539.023,0.0
53846.0,STARLINK-4746,PAYLOAD,2023-05-03 22:07:12,15.08847044,8.98e-05,53.2174,286.1258,95.4337,264.6758,7.6343e-05,9.28e-06,0.0,0 STARLINK-4746,1 53846U 22114AE  23123.92167429  .00000928  00000-0  76343-4 0  9993,2 53846  53.2174 286.1258 0000898  95.4337 264.6758 15.08847044 35319,6917.859,95.437,540.345,539.103,0.0
53846.0,STARLINK-4746,PAYLOAD,2023-05-04 14:01:04,15.08842502,9.47e-05,53.2174,283.1505,105.6088,254.5009,-1.3355e-05,-5e-06,0.0,0 STARLINK-4746,1 53846U 22114AE  23124.58407937 -.00000500  00000-0 -13355-4 0  9999,2 53846  53.2174 283.1505 0000947 105.6088 254.5009 15.08842502 35415,6917.873,95.437,540.393,539.083,0.0
53846.0,STARLINK-4746,PAYLOAD,2023-05-04 20:22:36,15.08848325,8.49e-05,53.2164,281.9598,102.9189,257.1898,2.8056e-05,1.59e-06,0.0,0 STARLINK-4746,1 53846U 22114AE  23124.84903366  .00000159  00000-0  28056-4 0  9997,2 53846  53.2164 281.9598 0000849 102.9189 257.1898 15.08848325 35992,6917.855,95.437,540.307,539.133,0.0
53846.0,STARLINK-4746,PAYLOAD,2023-05-05 15:27:14,15.08837192,0.0001022,53.217,278.3934,93.2119,266.899,4.8843e-05,4.9e-06,0.0,0 STARLINK-4746,1 53846U 22114AE  23125.64392237  .00000490  00000-0  48843-4 0  9999,2 53846  53.2170 278.3934 0001022  93.2119 266.8990 15.08837192 35576,6917.889,95.438,540.461,539.047,0.0
53846.0,STARLINK-4746,PAYLOAD,2023-05-05 20:13:23,15.08842803,9.65e-05,53.2173,277.5011,98.3689,261.7413,8.0442e-05,9.93e-06,0.0,0 STARLINK-4746,1 53846U 22114AE  23125.84263829  .00000993  00000-0  80442-4 0  9994,2 53846  53.2173 277.5011 0000965  98.3689 261.7413 15.08842803 36142,6917.872,95.437,540.404,539.069,0.0
53846.0,STARLINK-4746,PAYLOAD,2023-05-06 15:18:01,15.08849535,7.83e-05,53.2162,273.9326,88.319,271.7892,9.287e-05,1.191e-05,0.0,0 STARLINK-4746,1 53846U 22114AE  23126.63751629  .00001191  00000-0  92870-4 0  9991,2 53846  53.2162 273.9326 0000783  88.3190 271.7892 15.08849535 36267,6917.851,95.437,540.258,539.175,0.0
53846.0,STARLINK-4746,PAYLOAD,2023-05-07 02:25:43,15.08846969,6.33e-05,53.2151,271.851,85.5337,274.5728,8.1942e-05,1.017e-05,0.0,0 STARLINK-4746,1 53846U 22114AE  23127.10119443  .00001017  00000-0  81942-4 0  9991,2 53846  53.2151 271.8510 0000633  85.5337 274.5728 15.08846969 35797,6917.859,95.437,540.162,539.286,0.0
53846.0,STARLINK-4746,PAYLOAD,2023-05-07 11:58:02,15.08832147,8.58e-05,53.2149,270.0702,97.7339,262.375,-3.1615e-05,-7.91e-06,0.0,0 STARLINK-4746,1 53846U 22114AE  23127.49864447 -.00000791  00000-0 -31615-4 0  9996,2 53846  53.2149 270.0702 0000858  97.7339 262.3750 15.08832147 35854,6917.904,95.438,540.363,539.176,0.0
53846.0,STARLINK-4746,PAYLOAD,2023-05-07 13:33:26,15.0883309,8.8e-05,53.2166,269.7712,97.3452,262.764,2.9804e-05,1.87e-06,0.0,0 STARLINK-4746,1 53846U 22114AE  23127.56488863  .00000187  00000-0  29804-4 0  9992,2 53846  53.2166 269.7712 0000880  97.3452 262.7640 15.08833090 36408,6917.902,95.438,540.375,539.158,0.0
53846.0,STARLINK-4746,PAYLOAD,2023-05-07 16:44:12,15.08835916,8.97e-05,53.2158,269.1784,115.2242,244.8843,5.9871e-05,6.65e-06,0.0,0 STARLINK-4746,1 53846U 22114AE  23127.69736545  .00000665  00000-0  59871-4 0  9997,2 53846  53.2158 269.1784 0000897 115.2242 244.8843 15.08835916 36424,6917.893,95.438,540.378,539.137,0.0
53846.0,STARLINK-4746,PAYLOAD,2023-05-08 02:16:30,15.08842904,8.75e-05,53.2157,267.3943,109.2136,250.8951,4.4342e-05,4.18e-06,0.0,0 STARLINK-4746,1 53846U 22114AE  23128.09480134  .00000418  00000-0  44342-4 0  9995,2 53846  53.2157 267.3943 0000875 109.2136 250.8951 15.08842904 35949,6917.872,95.437,540.342,539.131,0.0
53846.0,STARLINK-4746,PAYLOAD,2023-05-08 16:34:58,15.08852367,7.53e-05,53.2154,264.7174,109.2035,250.9038,1.2091e-05,-9.5e-07,0.0,0 STARLINK-4746,1 53846U 22114AE  23128.69095598 -.00000095  00000-0  12091-4 0  9995,2 53846  53.2154 264.7174 0000753 109.2035 250.9038 15.08852367 36577,6917.843,95.437,540.229,539.187,0.0
53846.0,STARLINK-4746,PAYLOAD,2023-05-09 13:15:00,15.08833827,9.24e-05,53.2159,260.8511,84.5804,275.5293,0.00010389,1.366e-05,0.0,0 STARLINK-4746,1 53846U 22114AE  23129.55208776  .00001366  00000-0  10389-3 0  9993,2 53846  53.2159 260.8511 0000924  84.5804 275.5293 15.08833827 36704,6917.899,95.438,540.403,539.125,0.0
53846.0,STARLINK-4746,PAYLOAD,2023-05-10 13:05:47,15.0883938,0.0001049,53.2171,256.3907,78.7099,281.4011,4.0992e-05,3.65e-06,0.0,0 STARLINK-4746,1 53846U 22114AE  23130.54568847  .00000365  00000-0  40992-4 0  9994,2 53846  53.2171 256.3907 0001049  78.7099 281.4011 15.08839380 36857,6917.882,95.438,540.473,539.022,0.0
53846.0,STARLINK-4746,PAYLOAD,2023-05-10 19:27:18,15.08857235,9.36e-05,53.2177,255.1956,93.5103,266.5996,0.00011036,1.47e-05,0.0,0 STARLINK-4746,1 53846U 22114AE  23130.81063268  .00001470  00000-0  11036-3 0  9995,2 53846  53.2177 255.1956 0000936  93.5103 266.5996 15.08857235 36359,6917.828,95.436,540.34,539.045,0.0
53846.0,STARLINK-4746,PAYLOAD,2023-05-11 01:48:52,15.08834811,8.47e-05,53.2176,254.0104,78.2691,281.8396,5.0991e-05,5.24e-06,0.0,0 STARLINK-4746,1 53846U 22114AE  23131.07561037  .00000524  00000-0  50991-4 0  9994,2 53846  53.2176 254.0104 0000847  78.2691 281.8396 15.08834811 36397,6917.896,95.438,540.347,539.175,0.0
53846.0,STARLINK-4746,PAYLOAD,2023-05-11 11:21:11,15.08835333,0.0001094,53.2166,252.228,66.559,293.5518,3.4197e-05,2.56e-06,0.0,0 STARLINK-4746,1 53846U 22114AE  23131.47305284  .00000256  00000-0  34197-4 0  9990,2 53846  53.2166 252.2280 0001094  66.5590 293.5518 15.08835333 36996,6917.895,95.438,540.516,539.003,0.0
